[{"OBJECT_NAME":"STARLINK-4751","OBJECT_ID":"2022-114H","EPOCH":"2025-10-14T06:16:01.790976","MEAN_MOTION":15.08836648,"ECCENTRICITY":0.00014551,"INCLINATION":53.2176,"RA_OF_ASC_NODE":241.605,"ARG_OF_PERICENTER":82.1757,"MEAN_ANOMALY":277.94,"EPHEMERIS_TYPE":0,"CLASSIFICATION_TYPE":"U","NORAD_CAT_ID":53825,"ELEMENT_SET_NO":999,"REV_AT_EPOCH":17072,"BSTAR":2.93327e-6,"MEAN_MOTION_DOT":-2.41e-6,"MEAN_MOTION_DDOT":0},{"OBJECT_NAME":"STARLINK-4756","OBJECT_ID":"2022-114J","EPOCH":"2025-10-14T04:14:06.836928","MEAN_MOTION":15.08830976,"ECCENTRICITY":0.00016972,"INCLINATION":53.2183,"RA_OF_ASC_NODE":241.792,"ARG_OF_PERICENTER":113.62,"MEAN_ANOMALY":246.4971,"EPHEMERIS_TYPE":0,"CLASSIFICATION_TYPE":"U","NORAD_CAT_ID":53826,"ELEMENT_SET_NO":999,"REV_AT_EPOCH":17071,"BSTAR":-2.5999844e-5,"MEAN_MOTION_DOT":-7.02e-6,"MEAN_MOTION_DDOT":0},{"OBJECT_NAME":"STARLINK-4764","OBJECT_ID":"2022-114K","EPOCH":"2025-10-14T06:05:24.571968","MEAN_MOTION":15.08839928,"ECCENTRICITY":0.00015473,"INCLINATION":53.217,"RA_OF_ASC_NODE":241.5614,"ARG_OF_PERICENTER":99.0581,"MEAN_ANOMALY":261.0586,"EPHEMERIS_TYPE":0,"CLASSIFICATION_TYPE":"U","NORAD_CAT_ID":53827,"ELEMENT_SET_NO":999,"REV_AT_EPOCH":17072,"BSTAR":6.038117e-5,"MEAN_MOTION_DOT":6.73e-6,"MEAN_MOTION_DDOT":0},{"OBJECT_NAME":"STARLINK-4760","OBJECT_ID":"2022-114L","EPOCH":"2025-10-14T04:08:48.383808","MEAN_MOTION":15.08830368,"ECCENTRICITY":0.00013056,"INCLINATION":53.2156,"RA_OF_ASC_NODE":241.7668,"ARG_OF_PERICENTER":94.4665,"MEAN_ANOMALY":265.6476,"EPHEMERIS_TYPE":0,"CLASSIFICATION_TYPE":"U","NORAD_CAT_ID":53828,"ELEMENT_SET_NO":999,"REV_AT_EPOCH":17071,"BSTAR":0.00018298258,"MEAN_MOTION_DOT":2.625e-5,"MEAN_MOTION_DDOT":0},{"OBJECT_NAME":"STARLINK-4759","OBJECT_ID":"2022-114M","EPOCH":"2025-10-14T04:24:43.588512","MEAN_MOTION":15.08834489,"ECCENTRICITY":0.00016073,"INCLINATION":53.2194,"RA_OF_ASC_NODE":241.8383,"ARG_OF_PERICENTER":102.8667,"MEAN_ANOMALY":257.2505,"EPHEMERIS_TYPE":0,"CLASSIFICATION_TYPE":"U","NORAD_CAT_ID":53829,"ELEMENT_SET_NO":999,"REV_AT_EPOCH":17071,"BSTAR":-1.1040659e-5,"MEAN_MOTION_DOT":-4.64e-6,"MEAN_MOTION_DDOT":0},{"OBJECT_NAME":"STARLINK-4761","OBJECT_ID":"2022-114N","EPOCH":"2025-10-14T07:08:57.186240","MEAN_MOTION":15.08839233,"ECCENTRICITY":0.00014143,"INCLINATION":53.2159,"RA_OF_ASC_NODE":241.1265,"ARG_OF_PERICENTER":91.5029,"MEAN_ANOMALY":268.6125,"EPHEMERIS_TYPE":0,"CLASSIFICATION_TYPE":"U","NORAD_CAT_ID":53830,"ELEMENT_SET_NO":999,"REV_AT_EPOCH":17073,"BSTAR":3.5485478e-5,"MEAN_MOTION_DOT":2.77e-6,"MEAN_MOTION_DDOT":0},{"OBJECT_NAME":"STARLINK-4649","OBJECT_ID":"2022-114P","EPOCH":"2025-10-14T05:54:48.431232","MEAN_MOTION":15.08828466,"ECCENTRICITY":0.0001434,"INCLINATION":53.2181,"RA_OF_ASC_NODE":241.5153,"ARG_OF_PERICENTER":90.6179,"MEAN_ANOMALY":269.4978,"EPHEMERIS_TYPE":0,"CLASSIFICATION_TYPE":"U","NORAD_CAT_ID":53831,"ELEMENT_SET_NO":999,"REV_AT_EPOCH":17072,"BSTAR":3.8522766e-5,"MEAN_MOTION_DOT":3.25e-6,"MEAN_MOTION_DDOT":0},{"OBJECT_NAME":"STARLINK-4747","OBJECT_ID":"2022-114Q","EPOCH":"2025-10-14T06:58:20.904672","MEAN_MOTION":15.08838717,"ECCENTRICITY":0.00014184,"INCLINATION":53.2164,"RA_OF_ASC_NODE":241.0805,"ARG_OF_PERICENTER":93.9375,"MEAN_ANOMALY":266.178,"EPHEMERIS_TYPE":0,"CLASSIFICATION_TYPE":"U","NORAD_CAT_ID":53832,"ELEMENT_SET_NO":999,"REV_AT_EPOCH":17073,"BSTAR":-1.2950686e-5,"MEAN_MOTION_DOT":-4.94e-6,"MEAN_MOTION_DDOT":0},{"OBJECT_NAME":"STARLINK-4771","OBJECT_ID":"2022-114R","EPOCH":"2025-10-14T04:04:52.454784","MEAN_MOTION":15.08837259,"ECCENTRICITY":0.00014777,"INCLINATION":53.2164,"RA_OF_ASC_NODE":241.7504,"ARG_OF_PERICENTER":94.0573,"MEAN_ANOMALY":266.0588,"EPHEMERIS_TYPE":0,"CLASSIFICATION_TYPE":"U","NORAD_CAT_ID":53833,"ELEMENT_SET_NO":999,"REV_AT_EPOCH":17071,"BSTAR":2.8399724e-5,"MEAN_MOTION_DOT":1.64e-6,"MEAN_MOTION_DDOT":0},{"OBJECT_NAME":"STARLINK-4737","OBJECT_ID":"2022-114S","EPOCH":"2025-10-14T03:37:00.228576","MEAN_MOTION":15.08806296,"ECCENTRICITY":0.00012512,"INCLINATION":53.2168,"RA_OF_ASC_NODE":241.6304,"ARG_OF_PERICENTER":91.6083,"MEAN_ANOMALY":268.5052,"EPHEMERIS_TYPE":0,"CLASSIFICATION_TYPE":"U","NORAD_CAT_ID":53834,"ELEMENT_SET_NO":999,"REV_AT_EPOCH":17071,"BSTAR":-0.0002301697,"MEAN_MOTION_DOT":-3.946e-5,"MEAN_MOTION_DDOT":0},{"OBJECT_NAME":"STARLINK-4783","OBJECT_ID":"2022-114T","EPOCH":"2025-10-14T03:52:52.484448","MEAN_MOTION":15.08841084,"ECCENTRICITY":0.00014386,"INCLINATION":53.2163,"RA_OF_ASC_NODE":241.699,"ARG_OF_PERICENTER":90.5348,"MEAN_ANOMALY":269.5809,"EPHEMERIS_TYPE":0,"CLASSIFICATION_TYPE":"U","NORAD_CAT_ID":53835,"ELEMENT_SET_NO":999,"REV_AT_EPOCH":17071,"BSTAR":4.0986462e-5,"MEAN_MOTION_DOT":3.64e-6,"MEAN_MOTION_DDOT":0},{"OBJECT_NAME":"STARLINK-4778","OBJECT_ID":"2022-114U","EPOCH":"2025-10-14T06:22:39.677664","MEAN_MOTION":15.08823261,"ECCENTRICITY":0.00015896,"INCLINATION":53.2174,"RA_OF_ASC_NODE":231.644,"ARG_OF_PERICENTER":107.4779,"MEAN_ANOMALY":252.6387,"EPHEMERIS_TYPE":0,"CLASSIFICATION_TYPE":"U","NORAD_CAT_ID":53836,"ELEMENT_SET_NO":999,"REV_AT_EPOCH":17086,"BSTAR":0.00012477008,"MEAN_MOTION_DOT":1.697e-5,"MEAN_MOTION_DDOT":0},{"OBJECT_NAME":"STARLINK-4776","OBJECT_ID":"2022-114V","EPOCH":"2025-10-14T06:53:02.934528","MEAN_MOTION":15.08834292,"ECCENTRICITY":0.00017582,"INCLINATION":53.2181,"RA_OF_ASC_NODE":241.0567,"ARG_OF_PERICENTER":103.2958,"MEAN_ANOMALY":256.8231,"EPHEMERIS_TYPE":0,"CLASSIFICATION_TYPE":"U","NORAD_CAT_ID":53837,"ELEMENT_SET_NO":999,"REV_AT_EPOCH":17073,"BSTAR":-9.6262421e-5,"MEAN_MOTION_DOT":-1.82e-5,"MEAN_MOTION_DDOT":0},{"OBJECT_NAME":"STARLINK-4773","OBJECT_ID":"2022-114W","EPOCH":"2025-10-14T06:17:21.297120","MEAN_MOTION":15.08844538,"ECCENTRICITY":0.00015166,"INCLINATION":53.2166,"RA_OF_ASC_NODE":231.6289,"ARG_OF_PERICENTER":90.6263,"MEAN_ANOMALY":269.4903,"EPHEMERIS_TYPE":0,"CLASSIFICATION_TYPE":"U","NORAD_CAT_ID":53838,"ELEMENT_SET_NO":999,"REV_AT_EPOCH":17086,"BSTAR":0.00019503604,"MEAN_MOTION_DOT":2.818e-5,"MEAN_MOTION_DDOT":0},{"OBJECT_NAME":"STARLINK-4784","OBJECT_ID":"2022-114X","EPOCH":"2025-10-14T03:17:11.357664","MEAN_MOTION":15.08843513,"ECCENTRICITY":0.00016841,"INCLINATION":53.2167,"RA_OF_ASC_NODE":232.2692,"ARG_OF_PERICENTER":90.7147,"MEAN_ANOMALY":269.4038,"EPHEMERIS_TYPE":0,"CLASSIFICATION_TYPE":"U","NORAD_CAT_ID":53839,"ELEMENT_SET_NO":999,"REV_AT_EPOCH":17084,"BSTAR":-5.369872e-6,"MEAN_MOTION_DOT":-3.74e-6,"MEAN_MOTION_DDOT":0},{"OBJECT_NAME":"STARLINK-4766","OBJECT_ID":"2022-114Y","EPOCH":"2025-10-14T06:02:48.988896","MEAN_MOTION":15.08835842,"ECCENTRICITY":0.00017802,"INCLINATION":53.2162,"RA_OF_ASC_NODE":231.5643,"ARG_OF_PERICENTER":88.9343,"MEAN_ANOMALY":271.1853,"EPHEMERIS_TYPE":0,"CLASSIFICATION_TYPE":"U","NORAD_CAT_ID":53840,"ELEMENT_SET_NO":999,"REV_AT_EPOCH":17086,"BSTAR":0.00030864457,"MEAN_MOTION_DOT":4.627e-5,"MEAN_MOTION_DDOT":0}]
