STARLINK-4751           
1 53825U 22114H   25287.26113184 -.00000241  00000+0  29333-5 0  9995
2 53825  53.2176 241.6050 0001455  82.1757 277.9400 15.08836648170727
STARLINK-4756           
1 53826U 22114J   25287.17646802 -.00000702  00000+0 -26000-4 0  9994
2 53826  53.2183 241.7920 0001697 113.6200 246.4971 15.08830976170715
STARLINK-4764           
1 53827U 22114K   25287.25375662  .00000673  00000+0  60381-4 0  9992
2 53827  53.2170 241.5614 0001547  99.0581 261.0586 15.08839928170725
STARLINK-4760           
1 53828U 22114L   25287.17278222  .00002625  00000+0  18298-3 0  9996
2 53828  53.2156 241.7668 0001305  94.4665 265.6476 15.08830368170711
STARLINK-4759           
1 53829U 22114M   25287.18383783 -.00000464  00000+0 -11041-4 0  9998
2 53829  53.2194 241.8383 0001607 102.8667 257.2505 15.08834489170718
STARLINK-4761           
1 53830U 22114N   25287.29788410  .00000277  00000+0  35485-4 0  9996
2 53830  53.2159 241.1265 0001414  91.5029 268.6125 15.08839233170733
STARLINK-4649           
1 53831U 22114P   25287.24639388  .00000325  00000+0  38523-4 0  9991
2 53831  53.2181 241.5153 0001434  90.6179 269.4978 15.08828466170727
STARLINK-4747           
1 53832U 22114Q   25287.29051973 -.00000494  00000+0 -12951-4 0  9991
2 53832  53.2164 241.0805 0001418  93.9375 266.1780 15.08838717170730
STARLINK-4771           
1 53833U 22114R   25287.17005156  .00000164  00000+0  28400-4 0  9999
2 53833  53.2164 241.7504 0001477  94.0573 266.0588 15.08837259170714
STARLINK-4737           
1 53834U 22114S   25287.15069709 -.00003946  00000+0 -23017-3 0  9993
2 53834  53.2168 241.6304 0001251  91.6083 268.5052 15.08806296170715
STARLINK-4783           
1 53835U 22114T   25287.16171857  .00000364  00000+0  40986-4 0  9997
2 53835  53.2163 241.6990 0001438  90.5348 269.5809 15.08841084170716
STARLINK-4778           
1 53836U 22114U   25287.26573701  .00001697  00000+0  12477-3 0  9996
2 53836  53.2174 231.6440 0001589 107.4779 252.6387 15.08823261170868
STARLINK-4776           
1 53837U 22114V   25287.28683952 -.00001820  00000+0 -96262-4 0  9994
2 53837  53.2181 241.0567 0001758 103.2958 256.8231 15.08834292170739
STARLINK-4773           
1 53838U 22114W   25287.26205205  .00002818  00000+0  19504-3 0  9993
2 53838  53.2166 231.6289 0001516  90.6263 269.4903 15.08844538170863
STARLINK-4784           
1 53839U 22114X   25287.13693701 -.00000374  00000+0 -53699-5 0  9994
2 53839  53.2167 232.2692 0001684  90.7147 269.4038 15.08843513170847
STARLINK-4766           
1 53840U 22114Y   25287.25195589  .00004627  00000+0  30864-3 0  9990
2 53840  53.2162 231.5643 0001780  88.9343 271.1853 15.08835842170869
